DMSP 5D-3 F16 (USA 172) 
1 28054U 03048A   26165.49073758  .00000017  00000+0  32462-4 0  9995
2 28054  98.9891 189.3012 0007635 147.2361 345.7600 14.14482964169109
METEOSAT-9 (MSG-2)      
1 28912U 05049B   26164.84223331  .00000126  00000+0  00000+0 0  9992
2 28912   9.3538  54.2002 0001543 346.3460 210.4526  1.00270562  6968
DMSP 5D-3 F17 (USA 191) 
1 29522U 06050A   26165.48266654  .00000037  00000+0  41588-4 0  9991
2 29522  98.7378 172.1081 0011230  66.4398 293.7954 14.14992795 12044
FENGYUN 3A              
1 32958U 08026A   26165.43943713  .00000051  00000+0  44700-4 0  9991
2 32958  98.6883 106.3239 0009489 130.8166 229.3834 14.19570572935010
GOES 14                 
1 35491U 09033A   26165.46529926 -.00000274  00000+0  00000+0 0  9992
2 35491   1.6830  83.0739 0001713  10.4401 120.1578  1.00111637  6565
DMSP 5D-3 F18 (USA 210) 
1 35951U 09057A   26165.52458204  .00000197  00000+0  12497-3 0  9996
2 35951  98.9037 146.2995 0009858 257.9760 102.0309 14.14895357859210
EWS-G2 (GOES 15)        
1 36411U 10008A   26165.53429852  .00000024  00000+0  00000+0 0  9996
2 36411   1.2702  82.9017 0005389  42.1619  33.8043  1.00275718 59617
COMS 1                  
1 36744U 10032A   26164.85864462  .00000003  00000+0  00000+0 0  9993
2 36744   4.7961  75.3929 0011446  11.6277 210.9948  0.99162789 51053
FENGYUN 3B              
1 37214U 10059A   26165.48986957  .00000651  00000+0  36006-3 0  9997
2 37214  98.9626 211.4930 0021755 191.8279 304.8366 14.14843138807042
SUOMI NPP               
1 37849U 11061A   26165.52110039  .00000046  00000+0  42850-4 0  9993
2 37849  98.7954 106.4153 0001685  13.3278 346.7942 14.19516817758063
METEOSAT-10 (MSG-3)     
1 38552U 12035B   26165.33231080  .00000000  00000+0  00000+0 0  9992
2 38552   4.6648  61.0321 0001424 327.8422 353.7007  1.00276282 50823
METOP-B                 
1 38771U 12049A   26165.51475421  .00000095  00000+0  63084-4 0  9999
2 38771  98.6505 217.0672 0002398  26.2684 333.8615 14.21432018712887
INSAT-3D                
1 39216U 13038B   26165.52197633 -.00000333  00000+0  00000+0 0  9990
2 39216   1.9192  82.5726 0000553 308.2902 189.3915  1.00270361 47054
FENGYUN 3C              
1 39260U 13052A   26165.49956833  .00000049  00000+0  45892-4 0  9992
2 39260  98.4986 139.4978 0015377  35.0636 325.1548 14.15754501658182
METEOR-M 2              
1 40069U 14037A   26165.47078064  .00000346  00000+0  17721-3 0  9993
2 40069  98.5104 141.3050 0006853  50.7487 309.4298 14.21462070618934
HIMAWARI-8              
1 40267U 14060A   26165.50267713 -.00000268  00000+0  00000+0 0  9996
2 40267   0.0104 325.1042 0000973 121.6687 137.6528  1.00272498 42734
FENGYUN 2G              
1 40367U 14090A   26164.78685799 -.00000297  00000+0  00000+0 0  9999
2 40367   5.6288  72.8570 0003976 153.7441  58.4326  1.00273878 41964
METEOSAT-11 (MSG-4)     
1 40732U 15034A   26165.26287979  .00000071  00000+0  00000+0 0  9995
2 40732   3.1943  71.1275 0001756   9.7162 285.9383  1.00279445  7181
ELEKTRO-L 2             
1 41105U 15074A   26165.04412756 -.00000114  00000+0  00000+0 0  9992
2 41105   6.6845  70.5612 0000704 243.9352 309.2359  1.00270718 38471
SENTINEL-3A             
1 41335U 16011A   26165.48149411  .00000100  00000+0  59467-4 0  9992
2 41335  98.6249 232.9039 0001393 102.5174 257.6163 14.26739282537672
INSAT-3DR               
1 41752U 16054A   26165.55453083 -.00000070  00000+0  00000+0 0  9994
2 41752   0.0995  86.7188 0010640 187.1951 262.5461  1.00270797 35798
HIMAWARI-9              
1 41836U 16064A   26165.50267713 -.00000268  00000+0  00000+0 0  9995
2 41836   0.0500 147.1187 0000813 352.6463  84.7709  1.00269934 35185
GOES 16                 
1 41866U 16071A   26165.49002992 -.00000084  00000+0  00000+0 0  9996
2 41866   0.3340  85.5196 0000224 301.2577 307.7334  1.00271074 35078
FENGYUN 4A              
1 41882U 16077A   26165.44955490 -.00000351  00000+0  00000+0 0  9992
2 41882   2.3145  80.3150 0008669 152.9742 315.0781  1.00269978 34909
CYGFM05                 
1 41884U 16078A   26164.71624327  .00024006  00000+0  32685-3 0  9996
2 41884  34.9574 283.5706 0006752 115.6149 244.5273 15.56530665528214
CYGFM04                 
1 41885U 16078B   26165.52878883  .00027490  00000+0  31097-3 0  9991
2 41885  34.9322 246.0164 0006349 170.2823 189.8026 15.61385633528582
CYGFM02                 
1 41886U 16078C   26165.47073336  .00033165  00000+0  33349-3 0  9994
2 41886  34.9403 241.0188 0007337 171.0638 189.0220 15.64350400528748
CYGFM01                 
1 41887U 16078D   26165.02700982  .00025699  00000+0  34090-3 0  9997
2 41887  34.9405 282.5968 0006537 112.3531 247.7887 15.57218128528213
CYGFM08                 
1 41888U 16078E   26165.50388046  .00025634  00000+0  30706-3 0  9993
2 41888  34.9432 259.0860 0007970 151.1696 208.9470 15.59896366528551
CYGFM07                 
1 41890U 16078G   26165.52718095  .00025614  00000+0  30575-3 0  9991
2 41890  34.9444 247.2756 0006743 168.9075 191.1800 15.59999235528586
CYGFM03                 
1 41891U 16078H   26165.49817470  .00025417  00000+0  30357-3 0  9994
2 41891  34.9400 249.4066 0006141 156.2458 203.8552 15.59989926528552
