OBJECT_NAME,OBJECT_ID,EPOCH,MEAN_MOTION,ECCENTRICITY,INCLINATION,RA_OF_ASC_NODE,ARG_OF_PERICENTER,MEAN_ANOMALY,EPHEMERIS_TYPE,CLASSIFICATION_TYPE,NORAD_CAT_ID,ELEMENT_SET_NO,REV_AT_EPOCH,BSTAR,MEAN_MOTION_DOT,MEAN_MOTION_DDOT
DMSP 5D-3 F16 (USA 172),2003-048A,2026-06-14T11:46:39.726912,14.14482964,.0007635,98.9891,189.3012,147.2361,345.7600,0,U,28054,999,16910,.32462E-4,.17E-6,0
METEOSAT-9 (MSG-2),2005-049B,2026-06-13T20:12:48.957984,1.00270562,.00015434,9.3538,54.2002,346.3460,210.4526,0,U,28912,999,696,0,.126E-5,0
DMSP 5D-3 F17 (USA 191),2006-050A,2026-06-14T11:35:02.389056,14.14992795,.001123,98.7378,172.1081,66.4398,293.7954,0,U,29522,999,1204,.41588E-4,.37E-6,0
FENGYUN 3A,2008-026A,2026-06-14T10:32:47.368032,14.19570572,.0009489,98.6883,106.3239,130.8166,229.3834,0,U,32958,999,93501,.447E-4,.51E-6,0
GOES 14,2009-033A,2026-06-14T11:10:01.856064,1.00111637,.0001713,1.6830,83.0739,10.4401,120.1578,0,U,35491,999,656,0,-.274E-5,0
DMSP 5D-3 F18 (USA 210),2009-057A,2026-06-14T12:35:23.888256,14.14895357,.0009858,98.9037,146.2995,257.9760,102.0309,0,U,35951,999,85921,.12497E-3,.197E-5,0
EWS-G2 (GOES 15),2010-008A,2026-06-14T12:49:23.392128,1.00275718,.0005389,1.2702,82.9017,42.1619,33.8043,0,U,36411,999,5961,0,.24E-6,0
COMS 1,2010-032A,2026-06-13T20:36:26.895168,0.99162789,.00114466,4.7961,75.3929,11.6277,210.9948,0,U,36744,999,5105,0,.3E-7,0
FENGYUN 3B,2010-059A,2026-06-14T11:45:24.730848,14.14843138,.0021755,98.9626,211.4930,191.8279,304.8366,0,U,37214,999,80704,.36006E-3,.651E-5,0
SUOMI NPP,2011-061A,2026-06-14T12:30:23.073696,14.19516817,.0001685,98.7954,106.4153,13.3278,346.7942,0,U,37849,999,75806,.4285E-4,.46E-6,0
METEOSAT-10 (MSG-3),2012-035B,2026-06-14T07:58:31.653120,1.00276282,.0001424,4.6648,61.0321,327.8422,353.7007,0,U,38552,999,5082,0,0,0
METOP-B,2012-049A,2026-06-14T12:21:14.763744,14.21432018,.0002398,98.6505,217.0672,26.2684,333.8615,0,U,38771,999,71288,.63084E-4,.95E-6,0
INSAT-3D,2013-038B,2026-06-14T12:31:38.754912,1.00270361,.0000553,1.9192,82.5726,308.2902,189.3915,0,U,39216,999,4705,0,-.333E-5,0
FENGYUN 3C,2013-052A,2026-06-14T11:59:22.703712,14.15754501,.0015377,98.4986,139.4978,35.0636,325.1548,0,U,39260,999,65818,.45892E-4,.49E-6,0
METEOR-M 2,2014-037A,2026-06-14T11:17:55.447296,14.21462070,.0006853,98.5104,141.3050,50.7487,309.4298,0,U,40069,999,61893,.17721E-3,.346E-5,0
HIMAWARI-8,2014-060A,2026-06-14T12:03:51.304032,1.00272498,.0000973,0.0104,325.1042,121.6687,137.6528,0,U,40267,999,4273,0,-.268E-5,0
FENGYUN 2G,2014-090A,2026-06-13T18:53:04.530336,1.00273878,.00039762,5.6288,72.8570,153.7441,58.4326,0,U,40367,999,4196,0,-.297E-5,0
METEOSAT-11 (MSG-4),2015-034A,2026-06-14T06:18:32.813856,1.00279445,.0001756,3.1943,71.1275,9.7162,285.9383,0,U,40732,999,718,0,.71E-6,0
ELEKTRO-L 2,2015-074A,2026-06-14T01:03:32.621184,1.00270718,.00007046,6.6845,70.5612,243.9352,309.2359,0,U,41105,999,3847,0,-.114E-5,0
SENTINEL-3A,2016-011A,2026-06-14T11:33:21.091104,14.26739282,.0001393,98.6249,232.9039,102.5174,257.6163,0,U,41335,999,53767,.59467E-4,.1E-5,0
INSAT-3DR,2016-054A,2026-06-14T13:18:31.463712,1.00270797,.001064,0.0995,86.7188,187.1951,262.5461,0,U,41752,999,3579,0,-.7E-6,0
HIMAWARI-9,2016-064A,2026-06-14T12:03:51.304032,1.00269934,.0000813,0.0500,147.1187,352.6463,84.7709,0,U,41836,999,3518,0,-.268E-5,0
GOES 16,2016-071A,2026-06-14T11:45:38.585088,1.00271074,.0000224,0.3340,85.5196,301.2577,307.7334,0,U,41866,999,3507,0,-.84E-6,0
FENGYUN 4A,2016-077A,2026-06-14T10:47:21.543360,1.00269978,.0008669,2.3145,80.3150,152.9742,315.0781,0,U,41882,999,3490,0,-.351E-5,0
CYGFM05,2016-078A,2026-06-13T17:11:23.418528,15.56530665,.00067528,34.9574,283.5706,115.6149,244.5273,0,U,41884,999,52821,.326847E-3,.24006E-3,0
CYGFM04,2016-078B,2026-06-14T12:41:27.354912,15.61385633,.0006349,34.9322,246.0164,170.2823,189.8026,0,U,41885,999,52858,.31097E-3,.2749E-3,0
CYGFM02,2016-078C,2026-06-14T11:17:51.362304,15.64350400,.0007337,34.9403,241.0188,171.0638,189.0220,0,U,41886,999,52874,.33349E-3,.33165E-3,0
CYGFM01,2016-078D,2026-06-14T00:38:53.648448,15.57218128,.00065372,34.9405,282.5968,112.3531,247.7887,0,U,41887,999,52821,.34089941E-3,.25699E-3,0
CYGFM08,2016-078E,2026-06-14T12:05:35.271744,15.59896366,.000797,34.9432,259.0860,151.1696,208.9470,0,U,41888,999,52855,.30706E-3,.25634E-3,0
CYGFM07,2016-078G,2026-06-14T12:39:08.434080,15.59999235,.0006743,34.9444,247.2756,168.9075,191.1800,0,U,41890,999,52858,.30575E-3,.25614E-3,0
CYGFM03,2016-078H,2026-06-14T11:57:22.294080,15.59989926,.0006141,34.9400,249.4066,156.2458,203.8552,0,U,41891,999,52855,.30357E-3,.25417E-3,0
